{
  "type": "FeatureCollection",
  "features": [
    {
      "type": "Feature",
      "properties": {
        "norad_id": 58647,
        "name": "TIANMU-1 13",
        "group": "weather",
        "lat": -25.08249113702235,
        "lon": 8.417844680774232,
        "alt_km": 495.95447838380005,
        "timestamp": "2025-12-11T07:02:23.376823+00:00",
        "meta_object_name": "TIANMU-1 13",
        "meta_object_id": "2023-205C",
        "meta_epoch": "2025-12-10T23:16:26.452704",
        "meta_mean_motion": 15.24487634,
        "meta_eccentricity": 0.00060377,
        "meta_inclination": 97.3626,
        "meta_ra_of_asc_node": 4.6301,
        "meta_arg_of_pericenter": 275.4754,
        "meta_mean_anomaly": 84.5795,
        "meta_ephemeris_type": 0,
        "meta_classification_type": "U",
        "meta_norad_cat_id": 58647,
        "meta_element_set_no": 999,
        "meta_rev_at_epoch": 10880,
        "meta_bstar": 0.00038049876,
        "meta_mean_motion_dot": 9.288e-05,
        "meta_mean_motion_ddot": 0,
        "tle_line1": "1 58647U 23205C   25344.96975061  .00009288  00000+0  38050-3 0  9998",
        "tle_line2": "2 58647  97.3626   4.6301 0006037 275.4754  84.5795 15.24487634108808"
      },
      "geometry": {
        "type": "Point",
        "coordinates": [
          8.417844680774232,
          -25.08249113702235
        ]
      }
    },
    {
      "type": "Feature",
      "properties": {
        "norad_id": 58648,
        "name": "TIANMU-1 14",
        "group": "weather",
        "lat": 64.8416480844721,
        "lon": -11.666928519671846,
        "alt_km": 490.0041395564085,
        "timestamp": "2025-12-11T07:02:23.376834+00:00",
        "meta_object_name": "TIANMU-1 14",
        "meta_object_id": "2023-205D",
        "meta_epoch": "2025-12-11T00:27:01.650240",
        "meta_mean_motion": 15.24472089,
        "meta_eccentricity": 0.00068811,
        "meta_inclination": 97.3559,
        "meta_ra_of_asc_node": 4.0286,
        "meta_arg_of_pericenter": 280.351,
        "meta_mean_anomaly": 79.6952,
        "meta_ephemeris_type": 0,
        "meta_classification_type": "U",
        "meta_norad_cat_id": 58648,
        "meta_element_set_no": 999,
        "meta_rev_at_epoch": 10881,
        "meta_bstar": 0.00039185853,
        "meta_mean_motion_dot": 9.565e-05,
        "meta_mean_motion_ddot": 0,
        "tle_line1": "1 58648U 23205D   25345.01876910  .00009565  00000+0  39186-3 0  9998",
        "tle_line2": "2 58648  97.3559   4.0286 0006881 280.3510  79.6952 15.24472089108811"
      },
      "geometry": {
        "type": "Point",
        "coordinates": [
          -11.666928519671846,
          64.8416480844721
        ]
      }
    },
    {
      "type": "Feature",
      "properties": {
        "norad_id": 58660,
        "name": "TIANMU-1 19",
        "group": "weather",
        "lat": -55.88049674700947,
        "lon": 107.4513791865806,
        "alt_km": 487.4616646689865,
        "timestamp": "2025-12-11T07:02:23.376844+00:00",
        "meta_object_name": "TIANMU-1 19",
        "meta_object_id": "2023-208A",
        "meta_epoch": "2025-12-10T21:51:20.755296",
        "meta_mean_motion": 15.27794559,
        "meta_eccentricity": 0.0004038,
        "meta_inclination": 97.4387,
        "meta_ra_of_asc_node": 95.9512,
        "meta_arg_of_pericenter": 261.3704,
        "meta_mean_anomaly": 98.7078,
        "meta_ephemeris_type": 0,
        "meta_classification_type": "U",
        "meta_norad_cat_id": 58660,
        "meta_element_set_no": 999,
        "meta_rev_at_epoch": 10854,
        "meta_bstar": 0.00050539785,
        "meta_mean_motion_dot": 0.00013659,
        "meta_mean_motion_ddot": 0,
        "tle_line1": "1 58660U 23208A   25344.91065689  .00013659  00000+0  50540-3 0  9992",
        "tle_line2": "2 58660  97.4387  95.9512 0004038 261.3704  98.7078 15.27794559108545"
      },
      "geometry": {
        "type": "Point",
        "coordinates": [
          107.4513791865806,
          -55.88049674700947
        ]
      }
    },
    {
      "type": "Feature",
      "properties": {
        "norad_id": 58661,
        "name": "TIANMU-1 20",
        "group": "weather",
        "lat": 11.3396368785058,
        "lon": 95.27906952031425,
        "alt_km": 481.0052953108352,
        "timestamp": "2025-12-11T07:02:23.376854+00:00",
        "meta_object_name": "TIANMU-1 20",
        "meta_object_id": "2023-208B",
        "meta_epoch": "2025-12-10T23:08:11.687424",
        "meta_mean_motion": 15.28986869,
        "meta_eccentricity": 0.00062896,
        "meta_inclination": 97.4323,
        "meta_ra_of_asc_node": 96.4503,
        "meta_arg_of_pericenter": 273.5497,
        "meta_mean_anomaly": 86.5023,
        "meta_ephemeris_type": 0,
        "meta_classification_type": "U",
        "meta_norad_cat_id": 58661,
        "meta_element_set_no": 999,
        "meta_rev_at_epoch": 10862,
        "meta_bstar": 0.0004766945,
        "meta_mean_motion_dot": 0.00013361,
        "meta_mean_motion_ddot": 0,
        "tle_line1": "1 58661U 23208B   25344.96402416  .00013361  00000+0  47669-3 0  9999",
        "tle_line2": "2 58661  97.4323  96.4503 0006289 273.5497  86.5023 15.28986869108628"
      },
      "geometry": {
        "type": "Point",
        "coordinates": [
          95.27906952031425,
          11.3396368785058
        ]
      }
    },
    {
      "type": "Feature",
      "properties": {
        "norad_id": 58662,
        "name": "TIANMU-1 21",
        "group": "weather",
        "lat": 3.0744044317367734,
        "lon": 98.27919713474864,
        "alt_km": 474.5091450160762,
        "timestamp": "2025-12-11T07:02:23.376864+00:00",
        "meta_object_name": "TIANMU-1 21",
        "meta_object_id": "2023-208C",
        "meta_epoch": "2025-12-10T23:11:08.786688",
        "meta_mean_motion": 15.31487409,
        "meta_eccentricity": 0.00058765,
        "meta_inclination": 97.4372,
        "meta_ra_of_asc_node": 98.3529,
        "meta_arg_of_pericenter": 267.6317,
        "meta_mean_anomaly": 92.4252,
        "meta_ephemeris_type": 0,
        "meta_classification_type": "U",
        "meta_norad_cat_id": 58662,
        "meta_element_set_no": 999,
        "meta_rev_at_epoch": 10872,
        "meta_bstar": 0.00051414348,
        "meta_mean_motion_dot": 0.00015578,
        "meta_mean_motion_ddot": 0,
        "tle_line1": "1 58662U 23208C   25344.96607392  .00015578  00000+0  51414-3 0  9995",
        "tle_line2": "2 58662  97.4372  98.3529 0005876 267.6317  92.4252 15.31487409108729"
      },
      "geometry": {
        "type": "Point",
        "coordinates": [
          98.27919713474864,
          3.0744044317367734
        ]
      }
    },
    {
      "type": "Feature",
      "properties": {
        "norad_id": 58663,
        "name": "TIANMU-1 22",
        "group": "weather",
        "lat": -53.4973346652535,
        "lon": 106.56077372120644,
        "alt_km": 488.30859295870687,
        "timestamp": "2025-12-11T07:02:23.376874+00:00",
        "meta_object_name": "TIANMU-1 22",
        "meta_object_id": "2023-208D",
        "meta_epoch": "2025-12-10T21:50:36.873600",
        "meta_mean_motion": 15.27553057,
        "meta_eccentricity": 0.00027196,
        "meta_inclination": 97.438,
        "meta_ra_of_asc_node": 96.0105,
        "meta_arg_of_pericenter": 296.9865,
        "meta_mean_anomaly": 63.1096,
        "meta_ephemeris_type": 0,
        "meta_classification_type": "U",
        "meta_norad_cat_id": 58663,
        "meta_element_set_no": 999,
        "meta_rev_at_epoch": 10855,
        "meta_bstar": 0.00047262045,
        "meta_mean_motion_dot": 0.00012672,
        "meta_mean_motion_ddot": 0,
        "tle_line1": "1 58663U 23208D   25344.91014900  .00012672  00000+0  47262-3 0  9996",
        "tle_line2": "2 58663  97.4380  96.0105 0002719 296.9865  63.1096 15.27553057108550"
      },
      "geometry": {
        "type": "Point",
        "coordinates": [
          106.56077372120644,
          -53.4973346652535
        ]
      }
    },
    {
      "type": "Feature",
      "properties": {
        "norad_id": 58700,
        "name": "TIANMU-1 15",
        "group": "weather",
        "lat": 82.5115404800932,
        "lon": 72.53605837171251,
        "alt_km": 487.3544758330754,
        "timestamp": "2025-12-11T07:02:23.376886+00:00",
        "meta_object_name": "TIANMU-1 15",
        "meta_object_id": "2024-004A",
        "meta_epoch": "2025-12-10T22:46:06.160224",
        "meta_mean_motion": 15.24640913,
        "meta_eccentricity": 0.00052516,
        "meta_inclination": 97.4631,
        "meta_ra_of_asc_node": 166.4251,
        "meta_arg_of_pericenter": 306.0762,
        "meta_mean_anomaly": 53.9989,
        "meta_ephemeris_type": 0,
        "meta_classification_type": "U",
        "meta_norad_cat_id": 58700,
        "meta_element_set_no": 999,
        "meta_rev_at_epoch": 10707,
        "meta_bstar": 0.00041581562,
        "meta_mean_motion_dot": 0.00010202,
        "meta_mean_motion_ddot": 0,
        "tle_line1": "1 58700U 24004A   25344.94868241  .00010202  00000+0  41582-3 0  9997",
        "tle_line2": "2 58700  97.4631 166.4251 0005251 306.0762  53.9989 15.24640913107077"
      },
      "geometry": {
        "type": "Point",
        "coordinates": [
          72.53605837171251,
          82.5115404800932
        ]
      }
    }
  ]
}